[{"OBJECT_NAME":"STARLINK-2411","OBJECT_ID":"2021-018AR","EPOCH":"2026-03-09T17:28:27.682752","MEAN_MOTION":15.30188902,"ECCENTRICITY":0.00010058,"INCLINATION":53.1586,"RA_OF_ASC_NODE":244.8151,"ARG_OF_PERICENTER":106.3938,"MEAN_ANOMALY":253.7173,"EPHEMERIS_TYPE":0,"CLASSIFICATION_TYPE":"U","NORAD_CAT_ID":47826,"ELEMENT_SET_NO":999,"REV_AT_EPOCH":27670,"BSTAR":0.00014913487,"MEAN_MOTION_DOT":4.059e-5,"MEAN_MOTION_DDOT":0},{"OBJECT_NAME":"GEOSCAN 3 (RS92S3)","OBJECT_ID":"2025-155T","EPOCH":"2026-03-09T22:52:10.587648","MEAN_MOTION":15.31696739,"ECCENTRICITY":0.00068078,"INCLINATION":97.4455,"RA_OF_ASC_NODE":37.9971,"ARG_OF_PERICENTER":154.1387,"MEAN_ANOMALY":206.0196,"EPHEMERIS_TYPE":0,"CLASSIFICATION_TYPE":"U","NORAD_CAT_ID":64893,"ELEMENT_SET_NO":999,"REV_AT_EPOCH":6564,"BSTAR":0.00078414081,"MEAN_MOTION_DOT":0.00023985,"MEAN_MOTION_DDOT":0}]
